KUIPER-00112            
1 65150U 25171U   25280.59383542  .00023595  00000+0  65300-3 0  9999
2 65150  51.8740 129.4542 0004909   1.7114 358.3888 15.36869555 10015
KUIPER-00114            
1 65151U 25171V   25279.86320570  .00015133  00000+0  11612-2 0  9995
2 65151  51.8887 137.0248 0001278 245.1959 114.8880 15.01955753  9847
KUIPER-00115            
1 65152U 25171W   25278.50001156 -.00926371  00000+0 -41206-1 0  9990
2 65152  51.8818 140.0662 0008648 334.6373  72.7211 15.23526263  5860
KUIPER-00116            
1 65153U 25171X   25280.66670139 -.01054994  00000+0 -75631-1 0  9997
2 65153  51.8906 131.9450 0006211 308.6773  68.9215 15.06741240  4283
KUIPER-00118            
1 65154U 25171Y   25280.66670139 -.00510257  00000+0 -43661-1 0  9994
2 65154  51.9122 133.2177 0003849 323.7088 231.2536 14.99520113  5330
KUIPER-00119            
1 65155U 25171Z   25280.32206757 -.00016817  00000+0 -54212-3 0  9998
2 65155  51.8677 130.6014 0006027 319.6355  40.4181 15.31005104  9973
